NIGHTJAR                
1 60535U 24149BV  26068.64552146  .00004278  00000+0  36344-3 0  9997
2 60535  97.6919 146.7603 0002393  83.3363 276.8132 14.98398810127967
STARLINK-36209          
1 67022U 25293V   26068.17770489 -.00008704  00000+0 -72280-3 0  9995
2 67022  70.0010  95.6454 0002638 266.3087  93.7770 14.98321732 14818
